{
 "generated_at": "2026-06-20T08:22:11Z",
 "sources": [
  {
   "name": "CelesTrak",
   "url": "https://celestrak.org/NORAD/elements/",
   "license": "frei verfügbar; Attribution. Ursprünglich USSPACECOM/Space-Track."
  },
  {
   "name": "GCAT (J. McDowell, planet4589.org)",
   "url": "https://planet4589.org/space/gcat/",
   "license": "CC-BY 4.0"
  }
 ],
 "satellites": [
  {
   "norad": 37841,
   "name": "SRMSAT",
   "intl": "2011-058D",
   "group": "resource",
   "gcat": {
    "class": "A",
    "category": "TECH",
    "owner": "SRMU",
    "state": "IN"
   },
   "omm": {
    "OBJECT_NAME": "SRMSAT",
    "OBJECT_ID": "2011-058D",
    "EPOCH": "2026-06-19T08:38:13.672608",
    "MEAN_MOTION": 14.11575972,
    "ECCENTRICITY": 0.00117441,
    "INCLINATION": 19.9728,
    "RA_OF_ASC_NODE": 46.3158,
    "ARG_OF_PERICENTER": 227.622,
    "MEAN_ANOMALY": 288.1945,
    "EPHEMERIS_TYPE": 0,
    "CLASSIFICATION_TYPE": "U",
    "NORAD_CAT_ID": 37841,
    "ELEMENT_SET_NO": 999,
    "REV_AT_EPOCH": 75812,
    "BSTAR": 0.000048474163,
    "MEAN_MOTION_DOT": 0.00000354,
    "MEAN_MOTION_DDOT": 0
   }
  },
  {
   "norad": 53815,
   "name": "STRIX-1",
   "intl": "2022-113A",
   "group": "sar",
   "gcat": {
    "class": "B",
    "category": "IMG-R",
    "owner": "SYNSP",
    "state": "J"
   },
   "omm": {
    "OBJECT_NAME": "STRIX-1",
    "OBJECT_ID": "2022-113A",
    "EPOCH": "2026-06-19T20:22:00.304032",
    "MEAN_MOTION": 15.39892326,
    "ECCENTRICITY": 0.0003764,
    "INCLINATION": 97.4489,
    "RA_OF_ASC_NODE": 232.9204,
    "ARG_OF_PERICENTER": 202.2062,
    "MEAN_ANOMALY": 157.9021,
    "EPHEMERIS_TYPE": 0,
    "CLASSIFICATION_TYPE": "U",
    "NORAD_CAT_ID": 53815,
    "ELEMENT_SET_NO": 999,
    "REV_AT_EPOCH": 20785,
    "BSTAR": 0.00050013,
    "MEAN_MOTION_DOT": 0.00019829,
    "MEAN_MOTION_DDOT": 0
   }
  },
  {
   "norad": 62406,
   "name": "STRIX-2",
   "intl": "2024-248A",
   "group": "sar",
   "gcat": {
    "class": "B",
    "category": "IMG-R",
    "owner": "SYNSP",
    "state": "J"
   },
   "omm": {
    "OBJECT_NAME": "STRIX-2",
    "OBJECT_ID": "2024-248A",
    "EPOCH": "2026-06-19T20:36:01.104768",
    "MEAN_MOTION": 15.08929139,
    "ECCENTRICITY": 0.0014699,
    "INCLINATION": 97.6292,
    "RA_OF_ASC_NODE": 126.4833,
    "ARG_OF_PERICENTER": 333.3353,
    "MEAN_ANOMALY": 26.7118,
    "EPHEMERIS_TYPE": 0,
    "CLASSIFICATION_TYPE": "U",
    "NORAD_CAT_ID": 62406,
    "ELEMENT_SET_NO": 999,
    "REV_AT_EPOCH": 8199,
    "BSTAR": 0.00030439,
    "MEAN_MOTION_DOT": 0.0000475,
    "MEAN_MOTION_DDOT": 0
   }
  },
  {
   "norad": 59224,
   "name": "STRIX-3",
   "intl": "2024-047A",
   "group": "sar",
   "gcat": {
    "class": "B",
    "category": "IMG-R",
    "owner": "SYNSP",
    "state": "J"
   },
   "omm": {
    "OBJECT_NAME": "STRIX-3",
    "OBJECT_ID": "2024-047A",
    "EPOCH": "2026-06-19T21:05:06.394272",
    "MEAN_MOTION": 15.19409263,
    "ECCENTRICITY": 0.0014936,
    "INCLINATION": 97.6627,
    "RA_OF_ASC_NODE": 146.5933,
    "ARG_OF_PERICENTER": 58.7309,
    "MEAN_ANOMALY": 301.5386,
    "EPHEMERIS_TYPE": 0,
    "CLASSIFICATION_TYPE": "U",
    "NORAD_CAT_ID": 59224,
    "ELEMENT_SET_NO": 999,
    "REV_AT_EPOCH": 12515,
    "BSTAR": 0.00038584,
    "MEAN_MOTION_DOT": 0.00008124,
    "MEAN_MOTION_DDOT": 0
   }
  },
  {
   "norad": 60352,
   "name": "STRIX-4",
   "intl": "2024-137A",
   "group": "sar",
   "gcat": {
    "class": "B",
    "category": "IMG-R",
    "owner": "SYNSP",
    "state": "J"
   },
   "omm": {
    "OBJECT_NAME": "STRIX-4",
    "OBJECT_ID": "2024-137A",
    "EPOCH": "2026-06-19T18:16:27.483744",
    "MEAN_MOTION": 15.32660057,
    "ECCENTRICITY": 0.0018162,
    "INCLINATION": 43.0149,
    "RA_OF_ASC_NODE": 270.3654,
    "ARG_OF_PERICENTER": 318.9718,
    "MEAN_ANOMALY": 40.9769,
    "EPHEMERIS_TYPE": 0,
    "CLASSIFICATION_TYPE": "U",
    "NORAD_CAT_ID": 60352,
    "ELEMENT_SET_NO": 999,
    "REV_AT_EPOCH": 10441,
    "BSTAR": 0.00048356,
    "MEAN_MOTION_DOT": 0.00015403,
    "MEAN_MOTION_DDOT": 0
   }
  },
  {
   "norad": 65971,
   "name": "STRIX-5",
   "intl": "2025-229A",
   "group": "sar",
   "gcat": {
    "class": "B",
    "category": "IMG-R",
    "owner": "SYNSP",
    "state": "J"
   },
   "omm": {
    "OBJECT_NAME": "STRIX-5",
    "OBJECT_ID": "2025-229A",
    "EPOCH": "2026-06-19T13:25:16.158720",
    "MEAN_MOTION": 15.04436829,
    "ECCENTRICITY": 0.00358115,
    "INCLINATION": 41.9277,
    "RA_OF_ASC_NODE": 274.2439,
    "ARG_OF_PERICENTER": 67.2046,
    "MEAN_ANOMALY": 293.2557,
    "EPHEMERIS_TYPE": 0,
    "CLASSIFICATION_TYPE": "U",
    "NORAD_CAT_ID": 65971,
    "ELEMENT_SET_NO": 999,
    "REV_AT_EPOCH": 3733,
    "BSTAR": 0.00026239942,
    "MEAN_MOTION_DOT": 0.00003586,
    "MEAN_MOTION_DDOT": 0
   }
  },
  {
   "norad": 68291,
   "name": "STRIX-6",
   "intl": "2026-056A",
   "group": "sar",
   "gcat": {
    "class": "B",
    "category": "IMG-R",
    "owner": "SYNSP",
    "state": "J"
   },
   "omm": {
    "OBJECT_NAME": "STRIX-6",
    "OBJECT_ID": "2026-056A",
    "EPOCH": "2026-06-19T15:48:25.608672",
    "MEAN_MOTION": 15.00178184,
    "ECCENTRICITY": 0.0016429,
    "INCLINATION": 50.2852,
    "RA_OF_ASC_NODE": 338.1139,
    "ARG_OF_PERICENTER": 252.7691,
    "MEAN_ANOMALY": 107.146,
    "EPHEMERIS_TYPE": 0,
    "CLASSIFICATION_TYPE": "U",
    "NORAD_CAT_ID": 68291,
    "ELEMENT_SET_NO": 999,
    "REV_AT_EPOCH": 1364,
    "BSTAR": 0.00020537,
    "MEAN_MOTION_DOT": 0.00002336,
    "MEAN_MOTION_DDOT": 0
   }
  },
  {
   "norad": 69177,
   "name": "STRIX-7",
   "intl": "2026-112A",
   "group": "sar",
   "gcat": {
    "class": "B",
    "category": "IMG-R",
    "owner": "SYNSP",
    "state": "J"
   },
   "omm": {
    "OBJECT_NAME": "STRIX-7",
    "OBJECT_ID": "2026-112A",
    "EPOCH": "2026-06-19T20:00:34.861248",
    "MEAN_MOTION": 15.01443825,
    "ECCENTRICITY": 0.0023057,
    "INCLINATION": 44.9068,
    "RA_OF_ASC_NODE": 178.5487,
    "ARG_OF_PERICENTER": 62.4716,
    "MEAN_ANOMALY": 297.8495,
    "EPHEMERIS_TYPE": 0,
    "CLASSIFICATION_TYPE": "U",
    "NORAD_CAT_ID": 69177,
    "ELEMENT_SET_NO": 999,
    "REV_AT_EPOCH": 427,
    "BSTAR": 0.00012823,
    "MEAN_MOTION_DOT": 0.00001455,
    "MEAN_MOTION_DDOT": 0
   }
  },
  {
   "norad": 37849,
   "name": "SUOMI NPP",
   "intl": "2011-061A",
   "group": "weather",
   "gcat": {
    "class": "C",
    "category": "MET",
    "owner": "GSFC/NOAA",
    "state": "US"
   },
   "omm": {
    "OBJECT_NAME": "SUOMI NPP",
    "OBJECT_ID": "2011-061A",
    "EPOCH": "2026-06-19T21:04:22.780416",
    "MEAN_MOTION": 14.19517888,
    "ECCENTRICITY": 0.0001382,
    "INCLINATION": 98.7953,
    "RA_OF_ASC_NODE": 111.7357,
    "ARG_OF_PERICENTER": 0.4727,
    "MEAN_ANOMALY": 359.645,
    "EPHEMERIS_TYPE": 0,
    "CLASSIFICATION_TYPE": "U",
    "NORAD_CAT_ID": 37849,
    "ELEMENT_SET_NO": 999,
    "REV_AT_EPOCH": 75882,
    "BSTAR": 0.000049484,
    "MEAN_MOTION_DOT": 6e-7,
    "MEAN_MOTION_DDOT": 0
   }
  },
  {
   "norad": 54754,
   "name": "SWOT",
   "intl": "2022-173A",
   "group": "resource",
   "gcat": {
    "class": "C",
    "category": "EOSCI",
    "owner": "CNES/JPL",
    "state": "F"
   },
   "omm": {
    "OBJECT_NAME": "SWOT",
    "OBJECT_ID": "2022-173A",
    "EPOCH": "2026-06-19T20:18:51.144192",
    "MEAN_MOTION": 14.0016991,
    "ECCENTRICITY": 0.0000279,
    "INCLINATION": 77.6105,
    "RA_OF_ASC_NODE": 31.7203,
    "ARG_OF_PERICENTER": 91.3984,
    "MEAN_ANOMALY": 268.7199,
    "EPHEMERIS_TYPE": 0,
    "CLASSIFICATION_TYPE": "U",
    "NORAD_CAT_ID": 54754,
    "ELEMENT_SET_NO": 999,
    "REV_AT_EPOCH": 17952,
    "BSTAR": 0.000041663,
    "MEAN_MOTION_DOT": 5.9e-7,
    "MEAN_MOTION_DDOT": 0
   }
  },
  {
   "norad": 36605,
   "name": "TANDEM-X",
   "intl": "2010-030A",
   "group": "resource",
   "gcat": {
    "class": null,
    "category": "IMG-R",
    "owner": "DLR2/EASF",
    "state": "D"
   },
   "omm": {
    "OBJECT_NAME": "TANDEM-X",
    "OBJECT_ID": "2010-030A",
    "EPOCH": "2026-06-19T11:55:50.861280",
    "MEAN_MOTION": 15.19151444,
    "ECCENTRICITY": 0.0001891,
    "INCLINATION": 97.4451,
    "RA_OF_ASC_NODE": 178.1721,
    "ARG_OF_PERICENTER": 87.74,
    "MEAN_ANOMALY": 272.4051,
    "EPHEMERIS_TYPE": 0,
    "CLASSIFICATION_TYPE": "U",
    "NORAD_CAT_ID": 36605,
    "ELEMENT_SET_NO": 999,
    "REV_AT_EPOCH": 88699,
    "BSTAR": 0.000012414064,
    "MEAN_MOTION_DOT": 0.00000194,
    "MEAN_MOTION_DDOT": 0
   }
  },
  {
   "norad": 25397,
   "name": "TECHSAT 1B (GO-32)",
   "intl": "1998-043D",
   "group": "resource",
   "gcat": {
    "class": "A",
    "category": "COM",
    "owner": "TECN",
    "state": "IL"
   },
   "omm": {
    "OBJECT_NAME": "TECHSAT 1B (GO-32)",
    "OBJECT_ID": "1998-043D",
    "EPOCH": "2026-06-19T14:14:07.076544",
    "MEAN_MOTION": 14.24428772,
    "ECCENTRICITY": 0.0001179,
    "INCLINATION": 99.0068,
    "RA_OF_ASC_NODE": 163.4125,
    "ARG_OF_PERICENTER": 158.0468,
    "MEAN_ANOMALY": 202.076,
    "EPHEMERIS_TYPE": 0,
    "CLASSIFICATION_TYPE": "U",
    "NORAD_CAT_ID": 25397,
    "ELEMENT_SET_NO": 999,
    "REV_AT_EPOCH": 45167,
    "BSTAR": 0.000032334137,
    "MEAN_MOTION_DOT": 2.8e-7,
    "MEAN_MOTION_DDOT": 0
   }
  },
  {
   "norad": 25994,
   "name": "TERRA",
   "intl": "1999-068A",
   "group": "resource",
   "gcat": {
    "class": "C",
    "category": "IMG",
    "owner": "GSFC",
    "state": "US"
   },
   "omm": {
    "OBJECT_NAME": "TERRA",
    "OBJECT_ID": "1999-068A",
    "EPOCH": "2026-06-19T20:02:05.925984",
    "MEAN_MOTION": 14.61104873,
    "ECCENTRICITY": 0.0001794,
    "INCLINATION": 97.9455,
    "RA_OF_ASC_NODE": 220.2761,
    "ARG_OF_PERICENTER": 180.7116,
    "MEAN_ANOMALY": 290.3112,
    "EPHEMERIS_TYPE": 0,
    "CLASSIFICATION_TYPE": "U",
    "NORAD_CAT_ID": 25994,
    "ELEMENT_SET_NO": 999,
    "REV_AT_EPOCH": 40999,
    "BSTAR": 0.000065954,
    "MEAN_MOTION_DOT": 0.0000028,
    "MEAN_MOTION_DDOT": 0
   }
  }
 ]
}
